{"type": "FeatureCollection", "features": [ {"type": "Feature", "properties": {"norad_id": 35586, "name": "COSMOS 2251 DEB", "group": "cosmos-2251-debris", "lat": 47.888461066994964, "lon": 117.48853065176746, "alt_km": 916.4746961420487, "timestamp": "2025-12-04T07:39:36.527973+00:00", "meta": {"OBJECT_NAME": "COSMOS 2251 DEB", "OBJECT_ID": "1993-036AMD", "EPOCH": "2025-12-02T16:49:03.133344", "MEAN_MOTION": 13.52074918, "ECCENTRICITY": 0.04051153, "INCLINATION": 74.0205, "RA_OF_ASC_NODE": 318.5607, "ARG_OF_PERICENTER": 196.0051, "MEAN_ANOMALY": 342.734, "EPHEMERIS_TYPE": 0, "CLASSIFICATION_TYPE": "U", "NORAD_CAT_ID": 35586, "ELEMENT_SET_NO": 999, "REV_AT_EPOCH": 60246, "BSTAR": 0.00045411914, "MEAN_MOTION_DOT": 4.79e-06, "MEAN_MOTION_DDOT": 0}, "tle": {"line1": "1 35586U 93036AMD 25336.70073071  .00000479  00000+0  45412-3 0  9990", "line2": "2 35586  74.0205 318.5607 0405115 196.0051 342.7340 13.52074918602466"}}, "geometry": {"type": "Point", "coordinates": [117.48853065176746, 47.888461066994964]}}, {"type": "Feature", "properties": {"norad_id": 35587, "name": "COSMOS 2251 DEB", "group": "cosmos-2251-debris", "lat": -13.171690926770877, "lon": 70.97686007733854, "alt_km": 650.0029370174279, "timestamp": "2025-12-04T07:39:36.527982+00:00", "meta": {"OBJECT_NAME": "COSMOS 2251 DEB", "OBJECT_ID": "1993-036AME", "EPOCH": "2025-12-02T13:17:52.139616", "MEAN_MOTION": 14.71455583, "ECCENTRICITY": 0.01027177, "INCLINATION": 74.0049, "RA_OF_ASC_NODE": 78.2618, "ARG_OF_PERICENTER": 268.1186, "MEAN_ANOMALY": 90.8219, "EPHEMERIS_TYPE": 0, "CLASSIFICATION_TYPE": "U", "NORAD_CAT_ID": 35587, "ELEMENT_SET_NO": 999, "REV_AT_EPOCH": 66196, "BSTAR": 0.00042147374, "MEAN_MOTION_DOT": 2.801e-05, "MEAN_MOTION_DDOT": 0}, "tle": {"line1": "1 35587U 93036AME 25336.55407569  .00002801  00000+0  42147-3 0  9990", "line2": "2 35587  74.0049  78.2618 0102717 268.1186  90.8219 14.71455583661966"}}, "geometry": {"type": "Point", "coordinates": [70.97686007733854, -13.171690926770877]}}, {"type": "Feature", "properties": {"norad_id": 35593, "name": "COSMOS 2251 DEB", "group": "cosmos-2251-debris", "lat": 63.969422151760185, "lon": -20.646044828783488, "alt_km": 834.2129721610881, "timestamp": "2025-12-04T07:39:36.527991+00:00", "meta": {"OBJECT_NAME": "COSMOS 2251 DEB", "OBJECT_ID": "1993-036AML", "EPOCH": "2025-12-02T08:10:41.646720", "MEAN_MOTION": 14.25498697, "ECCENTRICITY": 0.01053488, "INCLINATION": 74.0851, "RA_OF_ASC_NODE": 307.1662, "ARG_OF_PERICENTER": 315.9582, "MEAN_ANOMALY": 43.3207, "EPHEMERIS_TYPE": 0, "CLASSIFICATION_TYPE": "U", "NORAD_CAT_ID": 35593, "ELEMENT_SET_NO": 999, "REV_AT_EPOCH": 84917, "BSTAR": 0.0018161686, "MEAN_MOTION_DOT": 4.526e-05, "MEAN_MOTION_DDOT": 0}, "tle": {"line1": "1 35593U 93036AML 25336.34075980  .00004526  00000+0  18162-2 0  9997", "line2": "2 35593  74.0851 307.1662 0105348 315.9582  43.3207 14.25498697849174"}}, "geometry": {"type": "Point", "coordinates": [-20.646044828783488, 63.969422151760185]}}, {"type": "Feature", "properties": {"norad_id": 35594, "name": "COSMOS 2251 DEB", "group": "cosmos-2251-debris", "lat": -65.96155858906616, "lon": 82.90711674220448, "alt_km": 599.829438226051, "timestamp": "2025-12-04T07:39:36.528000+00:00", "meta": {"OBJECT_NAME": "COSMOS 2251 DEB", "OBJECT_ID": "1993-036AMM", "EPOCH": "2025-12-01T02:30:04.449024", "MEAN_MOTION": 14.8736155, "ECCENTRICITY": 0.00313469, "INCLINATION": 73.8065, "RA_OF_ASC_NODE": 130.0573, "ARG_OF_PERICENTER": 241.1394, "MEAN_ANOMALY": 118.6638, "EPHEMERIS_TYPE": 0, "CLASSIFICATION_TYPE": "U", "NORAD_CAT_ID": 35594, "ELEMENT_SET_NO": 999, "REV_AT_EPOCH": 88012, "BSTAR": 0.00176297, "MEAN_MOTION_DOT": 0.00016075, "MEAN_MOTION_DDOT": 0}, "tle": {"line1": "1 35594U 93036AMM 25335.10421816  .00016075  00000+0  17630-2 0  9995", "line2": "2 35594  73.8065 130.0573 0031346 241.1394 118.6638 14.87361550880129"}}, "geometry": {"type": "Point", "coordinates": [82.90711674220448, -65.96155858906616]}}, {"type": "Feature", "properties": {"norad_id": 35602, "name": "COSMOS 2251 DEB", "group": "cosmos-2251-debris", "lat": 48.9561171969961, "lon": -140.43228647706857, "alt_km": 507.17637394502617, "timestamp": "2025-12-04T07:39:36.528009+00:00", "meta": {"OBJECT_NAME": "COSMOS 2251 DEB", "OBJECT_ID": "1993-036AMV", "EPOCH": "2025-12-03T02:23:02.143104", "MEAN_MOTION": 15.34579321, "ECCENTRICITY": 0.00909163, "INCLINATION": 73.9948, "RA_OF_ASC_NODE": 202.9376, "ARG_OF_PERICENTER": 270.9306, "MEAN_ANOMALY": 244.0233, "EPHEMERIS_TYPE": 0, "CLASSIFICATION_TYPE": "U", "NORAD_CAT_ID": 35602, "ELEMENT_SET_NO": 999, "REV_AT_EPOCH": 89943, "BSTAR": 0.00066173208, "MEAN_MOTION_DOT": 0.00025422, "MEAN_MOTION_DDOT": 0}, "tle": {"line1": "1 35602U 93036AMV 25337.09933036  .00025422  00000+0  66173-3 0  9990", "line2": "2 35602  73.9948 202.9376 0090916 270.9306 244.0233 15.34579321899430"}}, "geometry": {"type": "Point", "coordinates": [-140.43228647706857, 48.9561171969961]}}, {"type": "Feature", "properties": {"norad_id": 35605, "name": "COSMOS 2251 DEB", "group": "cosmos-2251-debris", "lat": -13.624724291064345, "lon": 178.8053043113227, "alt_km": 483.8344952311263, "timestamp": "2025-12-04T07:39:36.528018+00:00", "meta": {"OBJECT_NAME": "COSMOS 2251 DEB", "OBJECT_ID": "1993-036AMY", "EPOCH": "2025-11-25T09:05:01.395168", "MEAN_MOTION": 15.26251894, "ECCENTRICITY": 0.00343964, "INCLINATION": 73.8732, "RA_OF_ASC_NODE": 13.9291, "ARG_OF_PERICENTER": 311.4103, "MEAN_ANOMALY": 48.4141, "EPHEMERIS_TYPE": 0, "CLASSIFICATION_TYPE": "U", "NORAD_CAT_ID": 35605, "ELEMENT_SET_NO": 999, "REV_AT_EPOCH": 65706, "BSTAR": 0.0065174874, "MEAN_MOTION_DOT": 0.00175767, "MEAN_MOTION_DDOT": 0}, "tle": {"line1": "1 35605U 93036AMY 25329.37848837  .00175767  00000+0  65175-2 0  9997", "line2": "2 35605  73.8732  13.9291 0034396 311.4103  48.4141 15.26251894657063"}}, "geometry": {"type": "Point", "coordinates": [178.8053043113227, -13.624724291064345]}}, {"type": "Feature", "properties": {"norad_id": 35606, "name": "COSMOS 2251 DEB", "group": "cosmos-2251-debris", "lat": -57.383970027069196, "lon": -128.7830882736501, "alt_km": 773.755694761142, "timestamp": "2025-12-04T07:39:36.528027+00:00", "meta": {"OBJECT_NAME": "COSMOS 2251 DEB", "OBJECT_ID": "1993-036AMZ", "EPOCH": "2025-12-03T08:57:47.035584", "MEAN_MOTION": 13.41186059, "ECCENTRICITY": 0.04578387, "INCLINATION": 73.8109, "RA_OF_ASC_NODE": 25.726, "ARG_OF_PERICENTER": 232.8079, "MEAN_ANOMALY": 123.0404, "EPHEMERIS_TYPE": 0, "CLASSIFICATION_TYPE": "U", "NORAD_CAT_ID": 35606, "ELEMENT_SET_NO": 999, "REV_AT_EPOCH": 60914, "BSTAR": 0.0017547479, "MEAN_MOTION_DOT": 1.782e-05, "MEAN_MOTION_DDOT": 0}, "tle": {"line1": "1 35606U 93036AMZ 25337.37346106  .00001782  00000+0  17547-2 0  9994", "line2": "2 35606  73.8109  25.7260 0457838 232.8079 123.0404 13.41186059609140"}}, "geometry": {"type": "Point", "coordinates": [-128.7830882736501, -57.383970027069196]}}, {"type": "Feature", "properties": {"norad_id": 35611, "name": "COSMOS 2251 DEB", "group": "cosmos-2251-debris", "lat": -16.255225516247055, "lon": -169.07719209385283, "alt_km": 653.4147176692604, "timestamp": "2025-12-04T07:39:36.528036+00:00", "meta": {"OBJECT_NAME": "COSMOS 2251 DEB", "OBJECT_ID": "1993-036ANE", "EPOCH": "2025-12-01T14:30:37.941120", "MEAN_MOTION": 14.72378528, "ECCENTRICITY": 0.00224128, "INCLINATION": 74.0218, "RA_OF_ASC_NODE": 201.0005, "ARG_OF_PERICENTER": 275.1179, "MEAN_ANOMALY": 84.7435, "EPHEMERIS_TYPE": 0, "CLASSIFICATION_TYPE": "U", "NORAD_CAT_ID": 35611, "ELEMENT_SET_NO": 999, "REV_AT_EPOCH": 87126, "BSTAR": 0.0019124254, "MEAN_MOTION_DOT": 0.00012147, "MEAN_MOTION_DDOT": 0}, "tle": {"line1": "1 35611U 93036ANE 25335.60460580  .00012147  00000+0  19124-2 0  9997", "line2": "2 35611  74.0218 201.0005 0022412 275.1179  84.7435 14.72378528871263"}}, "geometry": {"type": "Point", "coordinates": [-169.07719209385283, -16.255225516247055]}}, {"type": "Feature", "properties": {"norad_id": 35614, "name": "COSMOS 2251 DEB", "group": "cosmos-2251-debris", "lat": -72.63405680798775, "lon": -83.1231816730819, "alt_km": 665.0507562985131, "timestamp": "2025-12-04T07:39:36.528045+00:00", "meta": {"OBJECT_NAME": "COSMOS 2251 DEB", "OBJECT_ID": "1993-036ANH", "EPOCH": "2025-11-28T17:49:08.774688", "MEAN_MOTION": 14.66804035, "ECCENTRICITY": 0.0076739, "INCLINATION": 73.9598, "RA_OF_ASC_NODE": 354.6008, "ARG_OF_PERICENTER": 212.3283, "MEAN_ANOMALY": 147.3173, "EPHEMERIS_TYPE": 0, "CLASSIFICATION_TYPE": "U", "NORAD_CAT_ID": 35614, "ELEMENT_SET_NO": 999, "REV_AT_EPOCH": 87524, "BSTAR": 0.00086232481, "MEAN_MOTION_DOT": 4.997e-05, "MEAN_MOTION_DDOT": 0}, "tle": {"line1": "1 35614U 93036ANH 25332.74246267  .00004997  00000+0  86232-3 0  9995", "line2": "2 35614  73.9598 354.6008 0076739 212.3283 147.3173 14.66804035875240"}}, "geometry": {"type": "Point", "coordinates": [-83.1231816730819, -72.63405680798775]}}, {"type": "Feature", "properties": {"norad_id": 35645, "name": "COSMOS 2251 DEB", "group": "cosmos-2251-debris", "lat": -67.28702618283711, "lon": 60.09955195318462, "alt_km": 702.7325252650007, "timestamp": "2025-12-04T07:39:36.528054+00:00", "meta": {"OBJECT_NAME": "COSMOS 2251 DEB", "OBJECT_ID": "1993-036ANL", "EPOCH": "2025-12-01T15:12:41.067360", "MEAN_MOTION": 14.45294467, "ECCENTRICITY": 0.00693993, "INCLINATION": 73.964, "RA_OF_ASC_NODE": 108.5275, "ARG_OF_PERICENTER": 267.6701, "MEAN_ANOMALY": 91.651, "EPHEMERIS_TYPE": 0, "CLASSIFICATION_TYPE": "U", "NORAD_CAT_ID": 35645, "ELEMENT_SET_NO": 999, "REV_AT_EPOCH": 86611, "BSTAR": 0.0022107239, "MEAN_MOTION_DOT": 7.975e-05, "MEAN_MOTION_DDOT": 0}, "tle": {"line1": "1 35645U 93036ANL 25335.63380865  .00007975  00000+0  22107-2 0  9992", "line2": "2 35645  73.9640 108.5275 0069399 267.6701  91.6510 14.45294467866117"}}, "geometry": {"type": "Point", "coordinates": [60.09955195318462, -67.28702618283711]}}]}